STARLINK-37197
1 68389U 26063K   26092.75002314 -.01802740  97118-3 -37283-2 0  9990
2 68389  97.2824 233.5491 0001658  70.4169  95.0063 15.99332269  2321
